[{"OBJECT_NAME":"LEMUR-1","OBJECT_ID":"2014-033AL","EPOCH":"2026-04-26T09:56:56.351040","MEAN_MOTION":14.85015018,"ECCENTRICITY":0.0047252,"INCLINATION":97.7809,"RA_OF_ASC_NODE":267.3977,"ARG_OF_PERICENTER":247.3151,"MEAN_ANOMALY":112.3064,"EPHEMERIS_TYPE":0,"CLASSIFICATION_TYPE":"U","NORAD_CAT_ID":40044,"ELEMENT_SET_NO":999,"REV_AT_EPOCH":63778,"BSTAR":0.00026973,"MEAN_MOTION_DOT":2.291e-5,"MEAN_MOTION_DDOT":0},{"OBJECT_NAME":"LEMUR-2-GREENBERG","OBJECT_ID":"2017-042N","EPOCH":"2026-04-26T10:28:09.312960","MEAN_MOTION":15.29682272,"ECCENTRICITY":0.0009385,"INCLINATION":97.381,"RA_OF_ASC_NODE":297.3699,"ARG_OF_PERICENTER":180.1722,"MEAN_ANOMALY":179.9517,"EPHEMERIS_TYPE":0,"CLASSIFICATION_TYPE":"U","NORAD_CAT_ID":42837,"ELEMENT_SET_NO":999,"REV_AT_EPOCH":48047,"BSTAR":0.00072075,"MEAN_MOTION_DOT":0.00020712,"MEAN_MOTION_DDOT":0},{"OBJECT_NAME":"LEMUR-2-ANDIS","OBJECT_ID":"2017-042P","EPOCH":"2026-04-26T10:41:34.204128","MEAN_MOTION":15.32714444,"ECCENTRICITY":0.0009387,"INCLINATION":97.3679,"RA_OF_ASC_NODE":297.4007,"ARG_OF_PERICENTER":183.3869,"MEAN_ANOMALY":176.7311,"EPHEMERIS_TYPE":0,"CLASSIFICATION_TYPE":"U","NORAD_CAT_ID":42838,"ELEMENT_SET_NO":999,"REV_AT_EPOCH":48052,"BSTAR":0.00086221,"MEAN_MOTION_DOT":0.00027263,"MEAN_MOTION_DDOT":0},{"OBJECT_NAME":"LEMUR-2-MONSON","OBJECT_ID":"2017-042Q","EPOCH":"2026-04-26T11:12:15.368256","MEAN_MOTION":15.26543343,"ECCENTRICITY":0.0007345,"INCLINATION":97.4068,"RA_OF_ASC_NODE":297.4453,"ARG_OF_PERICENTER":167.1114,"MEAN_ANOMALY":193.0314,"EPHEMERIS_TYPE":0,"CLASSIFICATION_TYPE":"U","NORAD_CAT_ID":42839,"ELEMENT_SET_NO":999,"REV_AT_EPOCH":48027,"BSTAR":0.00064897,"MEAN_MOTION_DOT":0.00016923,"MEAN_MOTION_DDOT":0},{"OBJECT_NAME":"LEMUR-2-FURIAUS","OBJECT_ID":"2017-042R","EPOCH":"2026-04-26T10:58:07.576896","MEAN_MOTION":15.2845452,"ECCENTRICITY":0.0006872,"INCLINATION":97.3763,"RA_OF_ASC_NODE":295.4658,"ARG_OF_PERICENTER":238.5591,"MEAN_ANOMALY":121.4977,"EPHEMERIS_TYPE":0,"CLASSIFICATION_TYPE":"U","NORAD_CAT_ID":42840,"ELEMENT_SET_NO":999,"REV_AT_EPOCH":48030,"BSTAR":0.00097165,"MEAN_MOTION_DOT":0.00026922,"MEAN_MOTION_DDOT":0},{"OBJECT_NAME":"LEMUR-2-PETERG","OBJECT_ID":"2017-042S","EPOCH":"2026-04-26T11:05:19.493952","MEAN_MOTION":15.31808409,"ECCENTRICITY":0.0004802,"INCLINATION":97.3998,"RA_OF_ASC_NODE":301.4967,"ARG_OF_PERICENTER":152.7439,"MEAN_ANOMALY":207.4055,"EPHEMERIS_TYPE":0,"CLASSIFICATION_TYPE":"U","NORAD_CAT_ID":42841,"ELEMENT_SET_NO":999,"REV_AT_EPOCH":48051,"BSTAR":0.00073817,"MEAN_MOTION_DOT":0.00022642,"MEAN_MOTION_DDOT":0},{"OBJECT_NAME":"LEMUR-2-DEMBITZ","OBJECT_ID":"2017-042T","EPOCH":"2026-04-26T11:32:34.393632","MEAN_MOTION":15.28673726,"ECCENTRICITY":0.0006928,"INCLINATION":97.3825,"RA_OF_ASC_NODE":298.4653,"ARG_OF_PERICENTER":189.8765,"MEAN_ANOMALY":170.234,"EPHEMERIS_TYPE":0,"CLASSIFICATION_TYPE":"U","NORAD_CAT_ID":42842,"ELEMENT_SET_NO":999,"REV_AT_EPOCH":48044,"BSTAR":0.00066838,"MEAN_MOTION_DOT":0.000186,"MEAN_MOTION_DDOT":0},{"OBJECT_NAME":"LEMUR-2-ZACHARY","OBJECT_ID":"2017-042W","EPOCH":"2026-04-26T11:27:52.394400","MEAN_MOTION":15.45976065,"ECCENTRICITY":0.0004123,"INCLINATION":97.3643,"RA_OF_ASC_NODE":307.1782,"ARG_OF_PERICENTER":187.3285,"MEAN_ANOMALY":172.7905,"EPHEMERIS_TYPE":0,"CLASSIFICATION_TYPE":"U","NORAD_CAT_ID":42845,"ELEMENT_SET_NO":999,"REV_AT_EPOCH":48120,"BSTAR":0.0010032,"MEAN_MOTION_DOT":0.0004906,"MEAN_MOTION_DDOT":0},{"OBJECT_NAME":"LEMUR-2-KADI","OBJECT_ID":"2018-014E","EPOCH":"2026-04-26T06:50:27.299616","MEAN_MOTION":15.76547418,"ECCENTRICITY":0.0006946,"INCLINATION":97.456,"RA_OF_ASC_NODE":44.1138,"ARG_OF_PERICENTER":96.2707,"MEAN_ANOMALY":263.935,"EPHEMERIS_TYPE":0,"CLASSIFICATION_TYPE":"U","NORAD_CAT_ID":43184,"ELEMENT_SET_NO":999,"REV_AT_EPOCH":45285,"BSTAR":0.0014981,"MEAN_MOTION_DOT":0.0024407,"MEAN_MOTION_DDOT":0},{"OBJECT_NAME":"LEMUR-2-AMANDA-SVANTE","OBJECT_ID":"2021-034B","EPOCH":"2026-04-26T10:56:17.642400","MEAN_MOTION":15.31266151,"ECCENTRICITY":0.0003994,"INCLINATION":97.5781,"RA_OF_ASC_NODE":193.5014,"ARG_OF_PERICENTER":97.501,"MEAN_ANOMALY":262.6684,"EPHEMERIS_TYPE":0,"CLASSIFICATION_TYPE":"U","NORAD_CAT_ID":48269,"ELEMENT_SET_NO":999,"REV_AT_EPOCH":27313,"BSTAR":0.0012011,"MEAN_MOTION_DOT":0.00036333,"MEAN_MOTION_DDOT":0},{"OBJECT_NAME":"LEMUR-2-SPECIAL-K","OBJECT_ID":"2021-034F","EPOCH":"2026-04-25T19:18:47.469312","MEAN_MOTION":15.52802449,"ECCENTRICITY":0.00023929,"INCLINATION":97.5658,"RA_OF_ASC_NODE":199.4049,"ARG_OF_PERICENTER":163.2726,"MEAN_ANOMALY":196.8606,"EPHEMERIS_TYPE":0,"CLASSIFICATION_TYPE":"U","NORAD_CAT_ID":48273,"ELEMENT_SET_NO":999,"REV_AT_EPOCH":27353,"BSTAR":0.0015508755,"MEAN_MOTION_DOT":0.00096959,"MEAN_MOTION_DDOT":0},{"OBJECT_NAME":"LEMUR-2-EMBRIONOVIS","OBJECT_ID":"2023-084AQ","EPOCH":"2026-04-26T07:25:44.281056","MEAN_MOTION":15.36183797,"ECCENTRICITY":0.0010103,"INCLINATION":97.6216,"RA_OF_ASC_NODE":258.5956,"ARG_OF_PERICENTER":135.6977,"MEAN_ANOMALY":224.5077,"EPHEMERIS_TYPE":0,"CLASSIFICATION_TYPE":"U","NORAD_CAT_ID":56970,"ELEMENT_SET_NO":999,"REV_AT_EPOCH":15971,"BSTAR":0.00049274,"MEAN_MOTION_DOT":0.00017335,"MEAN_MOTION_DDOT":0},{"OBJECT_NAME":"LEMUR-2-MANO","OBJECT_ID":"2023-100E","EPOCH":"2026-04-26T07:54:10.390752","MEAN_MOTION":15.79650256,"ECCENTRICITY":0.0013706,"INCLINATION":99.4435,"RA_OF_ASC_NODE":155.4001,"ARG_OF_PERICENTER":172.5851,"MEAN_ANOMALY":187.5615,"EPHEMERIS_TYPE":0,"CLASSIFICATION_TYPE":"U","NORAD_CAT_ID":57390,"ELEMENT_SET_NO":999,"REV_AT_EPOCH":15395,"BSTAR":0.0019477,"MEAN_MOTION_DOT":0.0037143,"MEAN_MOTION_DDOT":0},{"OBJECT_NAME":"LEMUR-2-DEVERILL-M-T","OBJECT_ID":"2023-100F","EPOCH":"2026-04-26T07:59:05.901216","MEAN_MOTION":15.37240229,"ECCENTRICITY":0.0006766,"INCLINATION":99.4525,"RA_OF_ASC_NODE":140.235,"ARG_OF_PERICENTER":201.5485,"MEAN_ANOMALY":158.5469,"EPHEMERIS_TYPE":0,"CLASSIFICATION_TYPE":"U","NORAD_CAT_ID":57391,"ELEMENT_SET_NO":999,"REV_AT_EPOCH":15327,"BSTAR":0.00080735,"MEAN_MOTION_DOT":0.00029442,"MEAN_MOTION_DDOT":0},{"OBJECT_NAME":"LEMUR-2-BASS","OBJECT_ID":"2023-174D","EPOCH":"2026-04-26T11:57:10.313856","MEAN_MOTION":15.41422332,"ECCENTRICITY":0.0006507,"INCLINATION":97.3844,"RA_OF_ASC_NODE":200.5589,"ARG_OF_PERICENTER":7.8628,"MEAN_ANOMALY":352.272,"EPHEMERIS_TYPE":0,"CLASSIFICATION_TYPE":"U","NORAD_CAT_ID":58259,"ELEMENT_SET_NO":999,"REV_AT_EPOCH":13739,"BSTAR":0.00046982,"MEAN_MOTION_DOT":0.00019598,"MEAN_MOTION_DDOT":0},{"OBJECT_NAME":"LEMUR-2-JK0903EM1407","OBJECT_ID":"2023-174CJ","EPOCH":"2026-04-26T12:12:01.353600","MEAN_MOTION":15.4911258,"ECCENTRICITY":0.0003727,"INCLINATION":97.3893,"RA_OF_ASC_NODE":205.6462,"ARG_OF_PERICENTER":292.6272,"MEAN_ANOMALY":67.4584,"EPHEMERIS_TYPE":0,"CLASSIFICATION_TYPE":"U","NORAD_CAT_ID":58336,"ELEMENT_SET_NO":999,"REV_AT_EPOCH":13772,"BSTAR":0.00053852,"MEAN_MOTION_DOT":0.00029233,"MEAN_MOTION_DDOT":0}]
