LEMUR-1                 
1 40044U 14033AL  26116.41454110  .00002291  00000+0  26973-3 0  9992
2 40044  97.7809 267.3977 0047252 247.3151 112.3064 14.85015018637789
LEMUR-2-GREENBERG       
1 42837U 17042N   26116.43621890  .00020712  00000+0  72075-3 0  9992
2 42837  97.3810 297.3699 0009385 180.1722 179.9517 15.29682272480471
LEMUR-2-ANDIS           
1 42838U 17042P   26116.44553477  .00027263  00000+0  86221-3 0  9995
2 42838  97.3679 297.4007 0009387 183.3869 176.7311 15.32714444480522
LEMUR-2-MONSON          
1 42839U 17042Q   26116.46684454  .00016923  00000+0  64897-3 0  9994
2 42839  97.4068 297.4453 0007345 167.1114 193.0314 15.26543343480274
LEMUR-2-FURIAUS         
1 42840U 17042R   26116.45703214  .00026922  00000+0  97165-3 0  9995
2 42840  97.3763 295.4658 0006872 238.5591 121.4977 15.28454520480302
LEMUR-2-PETERG          
1 42841U 17042S   26116.46203118  .00022642  00000+0  73817-3 0  9998
2 42841  97.3998 301.4967 0004802 152.7439 207.4055 15.31808409480511
LEMUR-2-DEMBITZ         
1 42842U 17042T   26116.48095363  .00018600  00000+0  66838-3 0  9996
2 42842  97.3825 298.4653 0006928 189.8765 170.2340 15.28673726480446
LEMUR-2-ZACHARY         
1 42845U 17042W   26116.47768975  .00049060  00000+0  10032-2 0  9992
2 42845  97.3643 307.1782 0004123 187.3285 172.7905 15.45976065481203
LEMUR-2-KADI            
1 43184U 18014E   26116.28503819  .00244070  00000+0  14981-2 0  9997
2 43184  97.4560  44.1138 0006946  96.2707 263.9350 15.76547418452850
LEMUR-2-AMANDA-SVANTE   
1 48269U 21034B   26116.45575975  .00036333  00000+0  12011-2 0  9996
2 48269  97.5781 193.5014 0003994  97.5010 262.6684 15.31266151273139
LEMUR-2-SPECIAL-K       
1 48273U 21034F   26115.80471608  .00096959  00000+0  15509-2 0  9992
2 48273  97.5658 199.4049 0002392 163.2726 196.8606 15.52802449273531
LEMUR-2-EMBRIONOVIS     
1 56970U 23084AQ  26116.30954029  .00017335  00000+0  49274-3 0  9999
2 56970  97.6216 258.5956 0010103 135.6977 224.5077 15.36183797159713
LEMUR-2-MANO            
1 57390U 23100E   26116.32928693  .00371430  00000+0  19477-2 0  9995
2 57390  99.4435 155.4001 0013706 172.5851 187.5615 15.79650256153954
LEMUR-2-DEVERILL-M-T    
1 57391U 23100F   26116.33270719  .00029442  00000+0  80735-3 0  9995
2 57391  99.4525 140.2350 0006766 201.5485 158.5469 15.37240229153277
LEMUR-2-BASS            
1 58259U 23174D   26116.49803604  .00019598  00000+0  46982-3 0  9999
2 58259  97.3844 200.5589 0006507   7.8628 352.2720 15.41422332137395
LEMUR-2-JK0903EM1407    
1 58336U 23174CJ  26116.50834900  .00029233  00000+0  53852-3 0  9991
2 58336  97.3893 205.6462 0003727 292.6272  67.4584 15.49112580137720
